[{"OBJECT_NAME":"STARLINK-30986","OBJECT_ID":"2023-186V","EPOCH":"2026-03-09T00:12:17.228736","MEAN_MOTION":15.26746052,"ECCENTRICITY":0.00013223,"INCLINATION":43.0032,"RA_OF_ASC_NODE":67.355,"ARG_OF_PERICENTER":276.4823,"MEAN_ANOMALY":83.5877,"EPHEMERIS_TYPE":0,"CLASSIFICATION_TYPE":"U","NORAD_CAT_ID":58492,"ELEMENT_SET_NO":999,"REV_AT_EPOCH":12578,"BSTAR":3.626784e-5,"MEAN_MOTION_DOT":7.13e-6,"MEAN_MOTION_DDOT":0},{"OBJECT_NAME":"TRANSPORTER-13 OBJECT AH","OBJECT_ID":"2025-052AH","EPOCH":"2026-03-09T15:34:17.115744","MEAN_MOTION":15.25468797,"ECCENTRICITY":0.000807,"INCLINATION":97.3962,"RA_OF_ASC_NODE":323.1443,"ARG_OF_PERICENTER":138.7508,"MEAN_ANOMALY":221.4341,"EPHEMERIS_TYPE":0,"CLASSIFICATION_TYPE":"U","NORAD_CAT_ID":63241,"ELEMENT_SET_NO":999,"REV_AT_EPOCH":5475,"BSTAR":0.00055931,"MEAN_MOTION_DOT":0.00014108,"MEAN_MOTION_DDOT":0}]
